SITRO-AIS 28            
1 59071U 24039U   24177.83369191  .00005866  00000+0  56166-3 0  9992
2 59071  95.4033 103.2429 0169049 313.7318  45.0006 14.83169005 17396
